KUIPER-00100            
1 65139U 25171H   25245.84469589  .00024770  00000+0  71048-3 0  9993
2 65139  51.8758 297.0517 0004468 215.8333 144.2353 15.35725559  4674
KUIPER-00102            
1 65140U 25171J   25245.84910595  .00039802  00000+0  11423-2 0  9995
2 65140  51.8760 297.0785 0003919 225.6793 134.3872 15.35465229  4676
KUIPER-00103            
1 65141U 25171K   25245.84650006  .00045941  00000+0  13056-2 0  9999
2 65141  51.8754 297.0634 0003992 219.8830 140.1863 15.35706495  4679
KUIPER-00104            
1 65142U 25171L   25245.84554512  .00042906  00000+0  12211-2 0  9995
2 65142  51.8771 297.0646 0003745 217.2826 142.7901 15.35693339  4678
KUIPER-00105            
1 65143U 25171M   25245.83860077  .00063397  00000+0  17620-2 0  9997
2 65143  51.8761 297.0168 0005302 198.7728 161.3063 15.36253375  4682
KUIPER-00106            
1 65144U 25171N   25245.84339841  .00063864  00000+0  17932-2 0  9994
2 65144  51.8760 297.0437 0004558 207.1169 152.9580 15.35935067  4681
KUIPER-00107            
1 65145U 25171P   25245.84417978  .00045415  00000+0  12864-2 0  9994
2 65145  51.8770 297.0561 0004854 213.9256 146.1420 15.35813108  4681
KUIPER-00108            
1 65146U 25171Q   25245.65431795  .00041490  00000+0  11956-2 0  9997
2 65146  51.8776 298.0326 0004715 233.4410 126.6142 15.35315026  4650
KUIPER-00109            
1 65147U 25171R   25245.84167544  .00052769  00000+0  14848-2 0  9991
2 65147  51.8761 297.0346 0005091 209.8739 150.1957 15.35951848  4671
KUIPER-00110            
1 65148U 25171S   25245.84282314  .00049158  00000+0  13838-2 0  9991
2 65148  51.8769 297.0463 0004378 201.9656 158.1143 15.35972016  4673
KUIPER-00111            
1 65149U 25171T   25245.84673616  .00055021  00000+0  15600-2 0  9996
2 65149  51.8772 297.0721 0003783 221.8148 138.2549 15.35700720  4671
KUIPER-00112            
1 65150U 25171U   25245.85064347  .00042948  00000+0  12360-2 0  9998
2 65150  51.8770 297.0967 0005152 242.9324 117.1137 15.35337480  4673
KUIPER-00114            
1 65151U 25171V   25245.84921887 -.00151523  00000+0 -44793-2 0  9996
2 65151  51.8767 297.0829 0004393 226.8625 133.1994 15.34944175  4671
KUIPER-00115            
1 65152U 25171W   25245.84298572  .00042051  00000+0  11899-2 0  9999
2 65152  51.8765 297.0412 0004726 204.5802 155.4960 15.35881089  4673
KUIPER-00116            
1 65153U 25171X   25245.84699960  .00044001  00000+0  12593-2 0  9995
2 65153  51.8774 297.0734 0004022 225.1298 134.9361 15.35505527  4675
KUIPER-00118            
1 65154U 25171Y   25245.84944074  .00062784  00000+0  17888-2 0  9995
2 65154  51.8772 297.0879 0004179 233.3182 126.7421 15.35486931  4673
KUIPER-00119            
1 65155U 25171Z   25245.84004336  .00061899  00000+0  17279-2 0  9994
2 65155  51.8760 297.0237 0004884 204.0306 156.0453 15.36129721  4678
METOP-SGA1              
1 65159U 25172A   25245.89832953  .00000136  00000+0  79043-4 0  9994
2 65159  98.7055 305.0776 0006604 299.7023  60.3498 14.23707503  2967
HULIANWANG DIGUI 8A     
1 65164U 25174A   25245.40575852  .00000144  00000+0  25013-3 0  9997
2 65164  86.5045 349.2247 0001337  74.6438 285.4851 13.36474771  2692
HULIANWANG DIGUI 8B     
1 65165U 25174B   25245.33480462  .00000022  00000+0  12950-4 0  9994
2 65165  86.5005 349.2454 0001740  70.0696 290.0631 13.35709669  2686
HULIANWANG DIGUI 8C     
1 65166U 25174C   25245.41294561  .00000182  00000+0  32889-3 0  9996
2 65166  86.5038 349.2276 0001621  76.5628 283.5693 13.35438149  2697
HULIANWANG DIGUI 8D     
1 65167U 25174D   25245.34230167  .00000123  00000+0  21602-3 0  9997
2 65167  86.5046 349.2570 0001508  84.2434 275.8877 13.34568471  2687
HULIANWANG DIGUI 8E     
1 65168U 25174E   25245.57091724  .00000023  00000+0  15049-4 0  9995
2 65168  86.4988 349.1690 0001618  83.1179 277.0145 13.34618882  2718
HULIANWANG DIGUI 8F     
1 65169U 25174F   25245.42531195  .00000042  00000+0  55393-4 0  9998
2 65169  86.5041 349.2323 0001765  86.6335 273.5006 13.33930364  2694
HULIANWANG DIGUI 8G     
1 65170U 25174G   25245.42926537  .00000061  00000+0  93634-4 0  9999
2 65170  86.5000 349.2266 0001070  97.9687 262.1573 13.33127484  2695
HULIANWANG DIGUI 8H     
1 65171U 25174H   25245.43688678 -.00000021  00000+0 -74403-4 0  9993
2 65171  86.4960 349.2223 0001544  91.0791 269.0524 13.32335514  2696
HULIANWANG DIGUI 8J     
1 65172U 25174J   25244.30734579  .00000137  00000+0  24893-3 0  9994
2 65172  86.4999 349.6161 0001133 221.1564 138.9490 13.33356594  2544
HULIANWANG DIGUI 8K     
1 65173U 25174K   25245.51678650 -.00001772  00000+0 -37433-2 0  9997
2 65173  86.5002 349.2087 0001274  62.3906 297.7361 13.31516203  2673
STARLINK-34956          
1 65174U 25175A   25245.91668981 -.00019351  00000+0 -35501-3 0  9996
2 65174  97.6032 116.7192 0001538  94.6329 181.3154 15.49174480  4313
STARLINK-34949          
1 65175U 25175B   25245.91668981  .00030670  00000+0  56435-3 0  9991
2 65175  97.6033 116.7197 0001605  88.1544 189.7322 15.49143896  4217
STARLINK-34707          
1 65176U 25175C   25245.91668981 -.00025492  00000+0 -46856-3 0  9996
2 65176  97.6033 116.7204 0001542  80.4467 199.3420 15.49177233  4371
STARLINK-34967          
1 65177U 25175D   25245.91668981 -.00037860  00000+0 -69766-3 0  9994
2 65177  97.6033 116.7224 0001959  87.3314 194.3743 15.49184524  4377
STARLINK-34929          
1 65178U 25175E   25245.91668981 -.00007106  00000+0 -12910-3 0  9994
2 65178  97.6032 116.7237 0001962  93.4662 190.1855 15.49155035  4372
STARLINK-34932          
1 65179U 25175F   25245.91668981 -.00018680  00000+0 -34273-3 0  9990
2 65179  97.6034 116.7250 0001920  91.7564 195.7287 15.49163185  4371
STARLINK-34862          
1 65180U 25175G   25245.91668981  .00005964  00000+0  11143-3 0  9992
2 65180  97.6070 116.7254 0001947  97.4560 191.9368 15.49170140  4372
STARLINK-34942          
1 65181U 25175H   25245.91668981  .00034473  00000+0  63383-3 0  9993
2 65181  97.6034 116.7238 0001820  94.6028 190.9666 15.49141826  4316
STARLINK-34944          
1 65182U 25175J   25245.91668981  .00010895  00000+0  20207-3 0  9994
2 65182  97.6033 116.7270 0001895  91.8364 199.4909 15.49153966  4374
STARLINK-34939          
1 65183U 25175K   25245.91668981 -.00013325  00000+0 -24370-3 0  9993
2 65183  97.6033 116.7274 0001840  81.3692 211.8593 15.49174578  4276
STARLINK-34947          
1 65184U 25175L   25245.91668981 -.00024638  00000+0 -45275-3 0  9990
2 65184  97.6033 116.7281 0001933  98.4681 196.6851 15.49177160  4373
STARLINK-34945          
1 65185U 25175M   25245.91668981  .00065973  00000+0  12069-2 0  9990
2 65185  97.6033 116.7287 0001911  97.9310 199.1606 15.49132736  4375
STARLINK-34965          
1 65186U 25175N   25245.91668981 -.00031063  00000+0 -57172-3 0  9991
2 65186  97.6036 116.7297 0001958  99.3462 201.5742 15.49177768  4378
STARLINK-34915          
1 65187U 25175P   25245.91668981 -.00018691  00000+0 -34281-3 0  9990
2 65187  97.6035 116.7290 0001891  93.7623 205.2361 15.49172949  4378
STARLINK-34972          
1 65188U 25175Q   25245.91668981  .00077040  00000+0  14073-2 0  9998
2 65188  97.6033 116.7308 0002057  96.9079 205.9497 15.49127253  4018
STARLINK-34866          
1 65189U 25175R   25245.91668981  .00020024  00000+0  36956-3 0  9994
2 65189  97.6035 116.7324 0001825  95.5705 209.2089 15.49143751  4376
STARLINK-34917          
1 65190U 25175S   25245.91668981  .00039476  00000+0  72524-3 0  9998
2 65190  97.6036 116.7328 0001853  87.8289 218.8722 15.49135713  4262
STARLINK-34948          
1 65191U 25175T   25245.91668981 -.00029625  00000+0 -54508-3 0  9998
2 65191  97.6033 116.7328 0001999 103.3020 205.3011 15.49177747  4375
STARLINK-34955          
1 65192U 25175U   25245.91668981 -.00111651  00000+0 -20761-2 0  9993
2 65192  97.6034 116.7338 0002191  94.0796 216.4039 15.49240209  4310
STARLINK-34950          
1 65193U 25175V   25245.91668981  .00002695  00000+0  51398-4 0  9991
2 65193  97.6036 116.7357 0001766  84.9175 227.5458 15.49148692  4311
STARLINK-34926          
1 65194U 25175W   25245.91668981  .00050935  00000+0  93392-3 0  9991
2 65194  97.6034 116.7387 0002005  99.4849 220.6564 15.49134570  4311
STARLINK-34928          
1 65195U 25175X   25245.91668981  .00005499  00000+0  10296-3 0  9999
2 65195  97.6034 116.7379 0002120 105.6476 212.5705 15.49150396  4374
STARLINK-34927          
1 65196U 25175Y   25245.91668981  .00040751  00000+0  74817-3 0  9999
2 65196  97.6072 116.7347 0002175  78.9670 235.4066 15.49147089  4379
STARLINK-34952          
1 65197U 25175Z   25245.91668981 -.00000417  00000+0 -58823-5 0  9998
2 65197  97.6034 116.7369 0002143 105.8939 210.4062 15.49152850  4376
STARLINK-34981          
1 65198U 25176A   25245.91668981 -.01499818  00000+0 -19277-1 0  9994
2 65198  53.1596 309.8278 0000920  79.8638 234.7976 15.61479544  4322
STARLINK-34821          
1 65199U 25176B   25245.91668981 -.01550203  00000+0 -20655-1 0  9993
2 65199  53.1592 310.0357 0001016  75.9098 137.7457 15.60658046  4270
STARLINK-34865          
1 65200U 25176C   25245.91668981 -.01547517  00000+0 -20616-1 0  9997
2 65200  53.1594 310.0393 0001150  76.2144 135.5285 15.60654194  4321
STARLINK-34843          
1 65201U 25176D   25245.91668981 -.01550082  00000+0 -20653-1 0  9990
2 65201  53.1593 310.0315 0001039  80.7574 134.8162 15.60657492  4328
STARLINK-34905          
1 65202U 25176E   25245.91668981 -.01551667  00000+0 -20675-1 0  9995
2 65202  53.1593 310.0274 0001113  77.2671 140.2223 15.60659049  4324
STARLINK-34914          
1 65203U 25176F   25245.91668981 -.01549808  00000+0 -20648-1 0  9990
2 65203  53.1593 310.0234 0001119  77.0782 142.3282 15.60657975  4322
STARLINK-34787          
1 65204U 25176G   25245.91668981 -.01551849  00000+0 -20677-1 0  9991
2 65204  53.1592 310.0192 0001119  77.1036 144.2190 15.60659422  4326
